{"type": "FeatureCollection", "features": [ {"type": "Feature", "properties": {"norad_id": 62339, "name": "GPS BIII-7  (PRN 01)", "group": "gps-ops", "lat": -54.679835120235325, "lon": -101.1674187250481, "alt_km": 20176.996953685826, "timestamp": "2025-12-20T05:41:50.289304+00:00", "meta": {"OBJECT_NAME": "GPS BIII-7  (PRN 01)", "OBJECT_ID": "2024-242A", "EPOCH": "2025-12-18T08:46:28.895808", "MEAN_MOTION": 2.00568182, "ECCENTRICITY": 0.0012509, "INCLINATION": 54.922, "RA_OF_ASC_NODE": 341.5124, "ARG_OF_PERICENTER": 345.6877, "MEAN_ANOMALY": 17.1618, "EPHEMERIS_TYPE": 0, "CLASSIFICATION_TYPE": "U", "NORAD_CAT_ID": 62339, "ELEMENT_SET_NO": 999, "REV_AT_EPOCH": 763, "BSTAR": 0, "MEAN_MOTION_DOT": -8.5e-07, "MEAN_MOTION_DDOT": 0}, "tle": {"line1": "1 62339U 24242A   25352.36561222 -.00000085  00000+0  00000+0 0  9993", "line2": "2 62339  54.9220 341.5124 0012509 345.6877  17.1618  2.00568182  7636"}}, "geometry": {"type": "Point", "coordinates": [-101.1674187250481, -54.679835120235325]}}, {"type": "Feature", "properties": {"norad_id": 64202, "name": "GPS BIII-8  (PRN 21)", "group": "gps-ops", "lat": 52.86721116161953, "lon": 151.30370462140408, "alt_km": 20190.6344184978, "timestamp": "2025-12-20T05:41:50.289317+00:00", "meta": {"OBJECT_NAME": "GPS BIII-8  (PRN 21)", "OBJECT_ID": "2025-116A", "EPOCH": "2025-12-18T15:16:52.654656", "MEAN_MOTION": 2.00558053, "ECCENTRICITY": 0.00059082, "INCLINATION": 55.1097, "RA_OF_ASC_NODE": 38.4029, "ARG_OF_PERICENTER": 309.1838, "MEAN_ANOMALY": 78.7026, "EPHEMERIS_TYPE": 0, "CLASSIFICATION_TYPE": "U", "NORAD_CAT_ID": 64202, "ELEMENT_SET_NO": 999, "REV_AT_EPOCH": 425, "BSTAR": 0, "MEAN_MOTION_DOT": -7e-07, "MEAN_MOTION_DDOT": 0}, "tle": {"line1": "1 64202U 25116A   25352.63672054 -.00000070  00000+0  00000+0 0  9995", "line2": "2 64202  55.1097  38.4029 0005908 309.1838  78.7026  2.00558053  4252"}}, "geometry": {"type": "Point", "coordinates": [151.30370462140408, 52.86721116161953]}}]}